[{"OBJECT_NAME":"CONNECTA IOT-9","OBJECT_ID":"2025-135G","EPOCH":"2026-03-09T20:17:19.885056","MEAN_MOTION":15.19721393,"ECCENTRICITY":0.00062915,"INCLINATION":97.4635,"RA_OF_ASC_NODE":184.7076,"ARG_OF_PERICENTER":145.897,"MEAN_ANOMALY":214.267,"EPHEMERIS_TYPE":0,"CLASSIFICATION_TYPE":"U","NORAD_CAT_ID":64534,"ELEMENT_SET_NO":999,"REV_AT_EPOCH":3973,"BSTAR":0.0002397867,"MEAN_MOTION_DOT":5.057e-5,"MEAN_MOTION_DDOT":0},{"OBJECT_NAME":"HYDROGNSS-2","OBJECT_ID":"2025-276DB","EPOCH":"2026-03-09T23:16:13.603296","MEAN_MOTION":15.17394407,"ECCENTRICITY":0.00029502,"INCLINATION":97.4274,"RA_OF_ASC_NODE":144.1742,"ARG_OF_PERICENTER":240.4199,"MEAN_ANOMALY":119.6741,"EPHEMERIS_TYPE":0,"CLASSIFICATION_TYPE":"U","NORAD_CAT_ID":66763,"ELEMENT_SET_NO":999,"REV_AT_EPOCH":1535,"BSTAR":0.00027739627,"MEAN_MOTION_DOT":5.478e-5,"MEAN_MOTION_DDOT":0}]
